{
    "links": {
        "self": "http://www.neowsapp.com/rest/v1/neo/3449122?api_key=iIulBulltgU6a56xZRHN4H3l9WmuAYTsLGpBGhQ2"
    },
    "id": "3449122",
    "neo_reference_id": "3449122",
    "name": "(2009 EX)",
    "designation": "2009 EX",
    "nasa_jpl_url": "http://ssd.jpl.nasa.gov/sbdb.cgi?sstr=3449122",
    "absolute_magnitude_h": 23.4,
    "estimated_diameter": {
        "kilometers": {
            "estimated_diameter_min": 0.0555334912,
            "estimated_diameter_max": 0.1241766613
        },
        "meters": {
            "estimated_diameter_min": 55.5334911581,
            "estimated_diameter_max": 124.1766612574
        },
        "miles": {
            "estimated_diameter_min": 0.0345069009,
            "estimated_diameter_max": 0.0771597762
        },
        "feet": {
            "estimated_diameter_min": 182.1964991311,
            "estimated_diameter_max": 407.4037573197
        }
    },
    "is_potentially_hazardous_asteroid": false,
    "close_approach_data": [
        {
            "close_approach_date": "2009-01-21",
            "close_approach_date_full": "2009-Jan-21 06:56",
            "epoch_date_close_approach": 1232520960000,
            "relative_velocity": {
                "kilometers_per_second": "5.8820640816",
                "kilometers_per_hour": "21175.4306936372",
                "miles_per_hour": "13157.5891440547"
            },
            "miss_distance": {
                "astronomical": "0.1190553217",
                "lunar": "46.3125201413",
                "kilometers": "17810422.538484779",
                "miles": "11066883.3872127902"
            },
            "orbiting_body": "Earth"
        }
    ],
    "orbital_data": {
        "orbit_id": "6",
        "orbit_determination_date": "2017-04-06 09:01:07",
        "first_observation_date": "2009-03-02",
        "last_observation_date": "2009-03-03",
        "data_arc_in_days": 1,
        "observations_used": 11,
        "orbit_uncertainty": "9",
        "minimum_orbit_intersection": ".118195",
        "jupiter_tisserand_invariant": "4.142",
        "epoch_osculation": "2454893.5",
        "eccentricity": ".3989602844914311",
        "semi_major_axis": "1.67259793656825",
        "inclination": "7.386812173342652",
        "ascending_node_longitude": "357.6400706506572",
        "orbital_period": "790.1067314894218",
        "perihelion_distance": "1.0052977879552",
        "perihelion_argument": "98.71220133377037",
        "aphelion_distance": "2.339898085181299",
        "perihelion_time": "2454830.447872630779",
        "mean_anomaly": "28.72873366124897",
        "mean_motion": ".4556346448553448",
        "equinox": "J2000",
        "orbit_class": {
            "orbit_class_type": "APO",
            "orbit_class_description": "Near-Earth asteroid orbits which cross the Earth’s orbit similar to that of 1862 Apollo",
            "orbit_class_range": "a (semi-major axis) > 1.0 AU; q (perihelion) < 1.017 AU"
        }
    },
    "is_sentry_object": false
}